[Satellite]
VERSION=1.1
NAME=ZY-1 02D
NICKNAME=ZY-1 02D
TLE1=1 44528U 19059A   19279.43267090 -.00000119  00000-0 -26235-4 0  9991
TLE2=2 44528  98.5774 352.5741 0000743 127.9267 232.1986 14.35325741  3481
STATUS=0
